IRIDIUM 39              
1 25042U 97069D   25324.02626397  .00000771  00000+0  19556-3 0  9998
2 25042  86.3908 144.3738 0018956 140.7294 219.5290 14.49454211471538
IRIDIUM 38              
1 25043U 97069E   25324.08900461  .00000485  00000+0  15292-3 0  9997
2 25043  86.3978 167.6317 0001343  22.3841 337.7415 14.38283711468364
IRIDIUM 42              
1 25077U 97077A   25324.07813813  .00000395  00000+0  12813-3 0  9992
2 25077  86.3990 173.9934 0001772  64.3100 295.8280 14.36504589463579
IRIDIUM 44              
1 25078U 97077B   25324.02843578  .00000458  00000+0  13820-3 0  9998
2 25078  86.3966 155.5406 0001126 151.1242 209.0020 14.40404700466131
IRIDIUM 45              
1 25104U 97082A   25324.31318352  .00021132  00000+0  61821-3 0  9999
2 25104  86.3533 331.7179 0104644 103.5999 257.6931 15.29738695475844
IRIDIUM 24              
1 25105U 97082B   25324.21581386  .00000501  00000+0  14589-3 0  9994
2 25105  86.3935  14.1080 0009165 284.6792  75.3392 14.42297749465702
IRIDIUM 51              
1 25262U 98018A   25324.31393879  .00084782  00000+0  10703-2 0  9993
2 25262  86.3747 337.7156 0058579   8.2379 351.9831 15.57173499471158
IRIDIUM 57              
1 25273U 98019B   25324.26544449  .00000459  00000+0  15122-3 0  9991
2 25273  86.3950  79.8148 0001952  93.1447 266.9973 14.36026027447181
